#aV2006 11 14  0  0   .00000000      96 DD+AD WGS84 FIT  NGA
## 1401 172800.00000000   900.00000000 54053  .0000000000000
+   30     1  2  3  4  5  6  7  8  9 10 11 13 14 15 16 17 18
+         19 20 21 22 23 24 25 26 27 28 29 30 31  0  0  0  0
+          0  0  0  0  0  0  0  0  0  0  0  0  0  0  0  0  0
+          0  0  0  0  0  0  0  0  0  0  0  0  0  0  0  0  0
+          0  0  0  0  0  0  0  0  0  0  0  0  0  0  0  0  0
++         0  0  0  0  0  0  0  0  0  0  0  0  0  0  0  0  0
++         0  0  0  0  0  0  0  0  0  0  0  0  0  0  0  0  0
++         0  0  0  0  0  0  0  0  0  0  0  0  0  0  0  0  0
++         0  0  0  0  0  0  0  0  0  0  0  0  0  0  0  0  0
++         0  0  0  0  0  0  0  0  0  0  0  0  0  0  0  0  0
%c cc cc ccc ccc cccc cccc cccc cccc ccccc ccccc ccccc ccccc
%c cc cc ccc ccc cccc cccc cccc cccc ccccc ccccc ccccc ccccc
%f  0.0000000  0.000000000  0.00000000000  0.000000000000000
%f  0.0000000  0.000000000  0.00000000000  0.000000000000000
%i    0    0    0    0      0      0      0      0         0
%i    0    0    0    0      0      0      0      0         0
/*      NGA, ST. LOUIS,MO.                                  
/*   EPHEMERIS COMPUTED FROM  3 DAYS OF DATA                
/* CCCCCCCCCCCCCCCCCCCCCCCCCCCCCCCCCCCCCCCCCCCCCCCCCCCCCCCCC
/* CCCCCCCCCCCCCCCCCCCCCCCCCCCCCCCCCCCCCCCCCCCCCCCCCCCCCCCCC
*  2006 11 14 15 45   .00000000                                                 
P  1  13666.633918  -8169.947368 -21040.693988     89.008459                    
V  1   1190.884040  27112.637309  -9723.811370       .026355                    
P  2 -23156.849076  12209.252702  -3886.520155     54.592593                    
V  2   2029.140792  -5383.252753 -31120.195524       .036478                    
P  3  12660.338226 -12704.519593  19300.378581    396.122044                    
V  3   5739.192255  24548.653257  12597.332622       .312748                    
P  4 -22264.360026   1801.286600 -14687.311640    336.293887                    
V  4  14369.493420 -11772.351548 -22944.531531       .042275                    
P  5     14.657262  16560.229361 -21019.961739    362.797025                    
V  5 -24656.634968  -8960.010331  -6998.579119       .286086                    
P  6   7642.533186  24473.376328   7008.702052    550.753805                    
V  6  -2608.577828   9008.969302 -29454.806725      -.134253                    
P  7  15528.472812  10517.049885  19111.745015    495.621328                    
V  7   1317.023453  23693.335354 -14456.069924      -.076152                    
P  8 -16301.468983  -6021.509294  20076.247327    -86.152034                    
V  8  21520.094280 -13932.038620  12784.946762      -.011369                    
P  9 -11879.162152  19956.554321 -13235.146072     44.606737                    
V  9 -14227.656786   7575.080969  25537.130137       .016509                    
P 10 -18120.785415   5000.829491  18791.967719     92.819338                    
V 10 -20668.991313 -12103.691093 -16316.591243       .006174                    
P 11   7763.505773 -21582.721001 -13245.357669     -4.562890                    
V 11  15125.590636  -8658.505462  23400.882223       .017087                    
P 13  -6652.297865 -24097.741602   8944.330267    112.727306                    
V 13   1221.875877 -11484.037426 -29695.331721       .036365                    
P 14  13894.579520   9872.325728 -20311.206477     -1.040551                    
V 14    487.305451  25882.752169  12792.418380       .010020                    
P 15  17656.760385   5531.430330  19077.298946     92.436699                    
V 15 -20631.847684  13049.573640  14776.991499       .409031                    
P 16  20742.844147  -2389.675913  16561.630941     91.759702                    
V 16  17793.032186  10972.926921 -20680.098119       .037341                    
P 17 -14555.468586  -9983.118108 -19887.815929     89.662726                    
V 17   -435.031303 -25227.551200  12878.382800      -.011680                    
P 18  17582.287156  17603.658165   9872.898130   -252.543387                    
V 18 -11890.948938  -3804.997027  28014.969685      -.005403                    
P 19   8947.075081 -21502.179865  12789.309833     34.239214                    
V 19   2419.199527  16115.924563  25681.406924       .038991                    
P 20  -3255.054730 -17275.857404 -20006.763885    -21.820734                    
V 20  23219.690085   9912.962684 -12358.144017       .000522                    
P 21  10883.099382  11590.331401  21406.895805     61.340273                    
V 21 -22899.398593  14304.027423   3365.627088       .015005                    
P 22  23796.125880  11614.267436  -2064.242155    149.264440                    
V 22    976.074599   4031.187155  31424.848358       .024945                    
P 23     -3.942685 -26346.433326  -2479.071452    140.428732                    
V 23   2872.398897   2882.155434 -31873.190114       .007677                    
P 24 -24227.344060   9023.045066  -6599.359707     52.314094                    
V 24   6067.479057  -6565.232241 -30011.155572       .030315                    
P 25  22666.073610  -9193.964904 -10140.649686    404.591393                    
V 25  -8782.673585  10471.927738 -27870.007051       .040393                    
P 26  -8079.385070  20873.564855  13424.276778     -4.299846                    
V 26  -2573.652151 -17830.510637  25967.125358      -.162516                    
P 27  -7805.531342 -13472.062376  22123.188498     78.024719                    
V 27  21405.788175 -15862.257587  -2462.871312       .019743                    
P 28 -22930.915484 -13653.407369   2175.476690     14.280261                    
V 28   3259.685682  -1123.592883  31361.011923      -.008888                    
P 29 -10227.360480  17416.864672  17302.698476    193.821345                    
V 29  -2829.638790 -21449.428596  20490.380857       .287295                    
P 30  12661.779156  17890.878546 -15382.931374     16.401558                    
V 30 -18217.596810  -5803.874028 -22072.737314       .012000                    
P 31  23105.468973  -5733.365787 -11625.911688    -44.609845                    
V 31 -11125.467028  10419.465833 -26768.178614       .100796                    
EOF
